start=new Date('2022-10-06T00:00:00.000Z').valueOf();
sats=[{"RA_OF_ASC_NODE":"136.8918","EPHEMERIS_TYPE":"0","ARG_OF_PERICENTER":"85.3121","RCS_SIZE":"LARGE","DECAY_DATE":null,"COUNTRY_CODE":"US","OBJECT_NAME":"STARLINK-2343","PERIAPSIS":"546.365","APOAPSIS":"548.126","CENTER_NAME":"EARTH","NORAD_CAT_ID":"47884","TLE_LINE1":"1 47884U 21021AA  22278.84505471 -.00001648  00000-0 -91767-4 0  9997","GP_ID":"214275142","LAUNCH_DATE":"2021-03-14","REF_FRAME":"TEME","BSTAR":"-0.00009176700000","REV_AT_EPOCH":"8751","MEAN_MOTION":"15.06389524","INCLINATION":"53.0544","MEAN_ELEMENT_THEORY":"SGP4","MEAN_MOTION_DDOT":"0.0000000000000","MEAN_MOTION_DOT":"-0.00001648","OBJECT_TYPE":"PAYLOAD","TIME_SYSTEM":"UTC","FILE":"3593077","TLE_LINE2":"2 47884  53.0544 136.8918 0001271  85.3121 274.8013 15.06389524 87510","SITE":"AFETR","PERIOD":"95.593","ELEMENT_SET_NO":"999","OBJECT_ID":"2021-021AA","SEMIMAJOR_AXIS":"6925.381","EPOCH":"2022-10-05T20:16:52.726944","ECCENTRICITY":"0.00012710","CLASSIFICATION_TYPE":"U","MEAN_ANOMALY":"274.8013"},{"BSTAR":"-0.00003602300000","REV_AT_EPOCH":"8760","LAUNCH_DATE":"2021-03-14","REF_FRAME":"TEME","GP_ID":"214275388","TLE_LINE1":"1 47885U 21021AB  22278.83905147 -.00000818  00000-0 -36023-4 0  9993","NORAD_CAT_ID":"47885","CENTER_NAME":"EARTH","APOAPSIS":"548.098","PERIAPSIS":"546.324","OBJECT_NAME":"STARLINK-2344","COUNTRY_CODE":"US","DECAY_DATE":null,"RCS_SIZE":"LARGE","ARG_OF_PERICENTER":"100.5878","EPHEMERIS_TYPE":"0","RA_OF_ASC_NODE":"141.9139","MEAN_ANOMALY":"259.5255","CLASSIFICATION_TYPE":"U","ECCENTRICITY":"0.00012810","EPOCH":"2022-10-05T20:08:14.047008","SEMIMAJOR_AXIS":"6925.346","OBJECT_ID":"2021-021AB","ELEMENT_SET_NO":"999","PERIOD":"95.592","SITE":"AFETR","TLE_LINE2":"2 47885  53.0537 141.9139 0001281 100.5878 259.5255 15.06400814 87609","FILE":"3593077","TIME_SYSTEM":"UTC","MEAN_MOTION_DOT":"-0.00000818","OBJECT_TYPE":"PAYLOAD","MEAN_MOTION_DDOT":"0.0000000000000","MEAN_ELEMENT_THEORY":"SGP4","MEAN_MOTION":"15.06400814","INCLINATION":"53.0537"},{"MEAN_MOTION_DOT":"-0.00000605","OBJECT_TYPE":"PAYLOAD","TIME_SYSTEM":"UTC","TLE_LINE2":"2 47886  53.0540 131.9162 0001299  85.8661 274.2476 15.06391279 87594","FILE":"3593077","SITE":"AFETR","INCLINATION":"53.0540","MEAN_MOTION":"15.06391279","MEAN_ELEMENT_THEORY":"SGP4","MEAN_MOTION_DDOT":"0.0000000000000","SEMIMAJOR_AXIS":"6925.375","EPOCH":"2022-10-05T20:08:12.855552","ECCENTRICITY":"0.00012990","CLASSIFICATION_TYPE":"U","MEAN_ANOMALY":"274.2476","ELEMENT_SET_NO":"999","PERIOD":"95.593","OBJECT_ID":"2021-021AC","DECAY_DATE":null,"RCS_SIZE":"LARGE","COUNTRY_CODE":"US","OBJECT_NAME":"STARLINK-2345","PERIAPSIS":"546.341","RA_OF_ASC_NODE":"131.9162","ARG_OF_PERICENTER":"85.8661","EPHEMERIS_TYPE":"0","GP_ID":"214273642","TLE_LINE1":"1 47886U 21021AC  22278.83903768 -.00000605  00000-0 -21754-4 0  9990","REF_FRAME":"TEME","LAUNCH_DATE":"2021-03-14","REV_AT_EPOCH":"8759","BSTAR":"-0.00002175400000","APOAPSIS":"548.140","CENTER_NAME":"EARTH","NORAD_CAT_ID":"47886"},{"APOAPSIS":"548.090","NORAD_CAT_ID":"47887","CENTER_NAME":"EARTH","TLE_LINE1":"1 47887U 21021AD  22278.86347944  .00005797  00000-0  40785-3 0  9991","GP_ID":"214273892","LAUNCH_DATE":"2021-03-14","REF_FRAME":"TEME","BSTAR":"0.00040785000000","REV_AT_EPOCH":"8752","RA_OF_ASC_NODE":"136.7857","EPHEMERIS_TYPE":"0","ARG_OF_PERICENTER":"105.5196","COUNTRY_CODE":"US","RCS_SIZE":"LARGE","DECAY_DATE":null,"PERIAPSIS":"546.382","OBJECT_NAME":"STARLINK-2346","ELEMENT_SET_NO":"999","PERIOD":"95.593","OBJECT_ID":"2021-021AD","SEMIMAJOR_AXIS":"6925.371","CLASSIFICATION_TYPE":"U","MEAN_ANOMALY":"254.5929","EPOCH":"2022-10-05T20:43:24.623616","ECCENTRICITY":"0.00012330","MEAN_ELEMENT_THEORY":"SGP4","MEAN_MOTION":"15.06392734","INCLINATION":"53.0545","MEAN_MOTION_DDOT":"0.0000000000000","TLE_LINE2":"2 47887  53.0545 136.7857 0001233 105.5196 254.5929 15.06392734 87529","FILE":"3593077","MEAN_MOTION_DOT":"0.00005797","OBJECT_TYPE":"PAYLOAD","TIME_SYSTEM":"UTC","SITE":"AFETR"},{"EPHEMERIS_TYPE":"0","ARG_OF_PERICENTER":"91.1539","RA_OF_ASC_NODE":"126.6989","DECAY_DATE":null,"RCS_SIZE":"LARGE","COUNTRY_CODE":"US","OBJECT_NAME":"STARLINK-2348","PERIAPSIS":"546.363","APOAPSIS":"548.093","CENTER_NAME":"EARTH","NORAD_CAT_ID":"47888","TLE_LINE1":"1 47888U 21021AE  22278.88651588 -.00001299  00000-0 -68335-4 0  9993","GP_ID":"214274643","BSTAR":"-0.00006833500000","REV_AT_EPOCH":"8767","LAUNCH_DATE":"2021-03-14","REF_FRAME":"TEME","MEAN_MOTION":"15.06395258","INCLINATION":"53.0540","MEAN_ELEMENT_THEORY":"SGP4","MEAN_MOTION_DDOT":"0.0000000000000","TIME_SYSTEM":"UTC","MEAN_MOTION_DOT":"-0.00001299","OBJECT_TYPE":"PAYLOAD","TLE_LINE2":"2 47888  53.0540 126.6989 0001249  91.1539 268.9593 15.06395258 87673","FILE":"3593077","SITE":"AFETR","PERIOD":"95.592","ELEMENT_SET_NO":"999","OBJECT_ID":"2021-021AE","SEMIMAJOR_AXIS":"6925.363","ECCENTRICITY":"0.00012490","EPOCH":"2022-10-05T21:16:34.972032","MEAN_ANOMALY":"268.9593","CLASSIFICATION_TYPE":"U"},{"COUNTRY_CODE":"US","DECAY_DATE":null,"RCS_SIZE":"LARGE","PERIAPSIS":"546.427","OBJECT_NAME":"STARLINK-2349","EPHEMERIS_TYPE":"0","ARG_OF_PERICENTER":"92.8489","RA_OF_ASC_NODE":"126.9558","GP_ID":"214274889","TLE_LINE1":"1 47889U 21021AF  22278.83123042 -.00000594  00000-0 -21023-4 0  9998","REV_AT_EPOCH":"8771","BSTAR":"-0.00002102300000","REF_FRAME":"TEME","LAUNCH_DATE":"2021-03-14","APOAPSIS":"548.063","NORAD_CAT_ID":"47889","CENTER_NAME":"EARTH","FILE":"3593077","TLE_LINE2":"2 47889  53.0549 126.9558 0001181  92.8489 267.2635 15.06389837 87715","TIME_SYSTEM":"UTC","OBJECT_TYPE":"PAYLOAD","MEAN_MOTION_DOT":"-0.00000594","SITE":"AFETR","MEAN_ELEMENT_THEORY":"SGP4","INCLINATION":"53.0549","MEAN_MOTION":"15.06389837","MEAN_MOTION_DDOT":"0.0000000000000","SEMIMAJOR_AXIS":"6925.380","MEAN_ANOMALY":"267.2635","CLASSIFICATION_TYPE":"U","ECCENTRICITY":"0.00011810","EPOCH":"2022-10-05T19:56:58.308288","ELEMENT_SET_NO":"999","PERIOD":"95.593","OBJECT_ID":"2021-021AF"},{"OBJECT_ID":"2021-021AG","PERIOD":"92.040","ELEMENT_SET_NO":"999","EPOCH":"2022-10-05T15:31:26.790240","ECCENTRICITY":"0.00078510","CLASSIFICATION_TYPE":"U","MEAN_ANOMALY":"84.2866","SEMIMAJOR_AXIS":"6752.689","MEAN_MOTION_DDOT":"0.0000000000000","INCLINATION":"53.0495","MEAN_MOTION":"15.64543444","MEAN_ELEMENT_THEORY":"SGP4","SITE":"AFETR","MEAN_MOTION_DOT":"0.00164610","OBJECT_TYPE":"PAYLOAD","TIME_SYSTEM":"UTC","FILE":"3593077","TLE_LINE2":"2 47890  53.0495  48.0733 0007851 275.7253  84.2866 15.64543444 87811","CENTER_NAME":"EARTH","NORAD_CAT_ID":"47890","APOAPSIS":"379.856","REF_FRAME":"TEME","LAUNCH_DATE":"2021-03-14","REV_AT_EPOCH":"8781","BSTAR":"0.00164540000000","TLE_LINE1":"1 47890U 21021AG  22278.64683785  .00164610  00000-0  16454-2 0  9992","GP_ID":"214274142","RA_OF_ASC_NODE":"48.0733","EPHEMERIS_TYPE":"0","ARG_OF_PERICENTER":"275.7253","OBJECT_NAME":"STARLINK-2350","PERIAPSIS":"369.253","RCS_SIZE":"LARGE","DECAY_DATE":null,"COUNTRY_CODE":"US"},{"NORAD_CAT_ID":"47891","CENTER_NAME":"EARTH","APOAPSIS":"548.133","REV_AT_EPOCH":"8768","BSTAR":"-0.00005134500000","LAUNCH_DATE":"2021-03-14","REF_FRAME":"TEME","GP_ID":"214274392","TLE_LINE1":"1 47891U 21021AH  22278.83768368 -.00001046  00000-0 -51345-4 0  9990","EPHEMERIS_TYPE":"0","ARG_OF_PERICENTER":"105.3255","RA_OF_ASC_NODE":"136.9197","PERIAPSIS":"546.370","OBJECT_NAME":"STARLINK-2351","COUNTRY_CODE":"US","DECAY_DATE":null,"RCS_SIZE":"LARGE","OBJECT_ID":"2021-021AH","PERIOD":"95.593","ELEMENT_SET_NO":"999","MEAN_ANOMALY":"254.7875","CLASSIFICATION_TYPE":"U","ECCENTRICITY":"0.00012730","EPOCH":"2022-10-05T20:06:15.869952","SEMIMAJOR_AXIS":"6925.386","MEAN_MOTION_DDOT":"0.0000000000000","MEAN_ELEMENT_THEORY":"SGP4","INCLINATION":"53.0546","MEAN_MOTION":"15.06387745","SITE":"AFETR","TLE_LINE2":"2 47891  53.0546 136.9197 0001273 105.3255 254.7875 15.06387745 87687","FILE":"3593077","TIME_SYSTEM":"UTC","OBJECT_TYPE":"PAYLOAD","MEAN_MOTION_DOT":"-0.00001046"},{"RA_OF_ASC_NODE":"120.4581","ARG_OF_PERICENTER":"50.9781","EPHEMERIS_TYPE":"0","COUNTRY_CODE":"US","DECAY_DATE":null,"RCS_SIZE":"LARGE","PERIAPSIS":"514.069","OBJECT_NAME":"STARLINK-2352","APOAPSIS":"516.419","NORAD_CAT_ID":"47892","CENTER_NAME":"EARTH","TLE_LINE1":"1 47892U 21021AJ  22278.79919128 -.00001828  00000-0 -76015-4 0  9997","GP_ID":"214275143","REF_FRAME":"TEME","LAUNCH_DATE":"2021-03-14","REV_AT_EPOCH":"8775","BSTAR":"-0.00007601500000","MEAN_ELEMENT_THEORY":"SGP4","INCLINATION":"53.0552","MEAN_MOTION":"15.16891492","MEAN_MOTION_DDOT":"0.0000000000000","TLE_LINE2":"2 47892  53.0552 120.4581 0001705  50.9781 309.1364 15.16891492 87755","FILE":"3593077","OBJECT_TYPE":"PAYLOAD","MEAN_MOTION_DOT":"-0.00001828","TIME_SYSTEM":"UTC","SITE":"AFETR","PERIOD":"94.931","ELEMENT_SET_NO":"999","OBJECT_ID":"2021-021AJ","SEMIMAJOR_AXIS":"6893.379","CLASSIFICATION_TYPE":"U","MEAN_ANOMALY":"309.1364","EPOCH":"2022-10-05T19:10:50.126592","ECCENTRICITY":"0.00017050"},{"NORAD_CAT_ID":"47894","CENTER_NAME":"EARTH","APOAPSIS":"548.327","BSTAR":"-0.00009105100000","REV_AT_EPOCH":"8761","LAUNCH_DATE":"2021-03-14","REF_FRAME":"TEME","GP_ID":"214275389","TLE_LINE1":"1 47894U 21021AL  22278.86071366 -.00001637  00000-0 -91051-4 0  9995","EPHEMERIS_TYPE":"0","ARG_OF_PERICENTER":"93.7892","RA_OF_ASC_NODE":"126.8194","PERIAPSIS":"546.173","OBJECT_NAME":"STARLINK-2354","COUNTRY_CODE":"US","RCS_SIZE":"LARGE","DECAY_DATE":null,"OBJECT_ID":"2021-021AL","ELEMENT_SET_NO":"999","PERIOD":"95.593","MEAN_ANOMALY":"266.3275","CLASSIFICATION_TYPE":"U","ECCENTRICITY":"0.00015550","EPOCH":"2022-10-05T20:39:25.660224","SEMIMAJOR_AXIS":"6925.385","MEAN_MOTION_DDOT":"0.0000000000000","MEAN_ELEMENT_THEORY":"SGP4","MEAN_MOTION":"15.06388037","INCLINATION":"53.0552","SITE":"AFETR","TLE_LINE2":"2 47894  53.0552 126.8194 0001555  93.7892 266.3275 15.06388037 87613","FILE":"3593077","TIME_SYSTEM":"UTC","MEAN_MOTION_DOT":"-0.00001637","OBJECT_TYPE":"PAYLOAD"}];
